K09W06J 27.4   0.15 K14C9  34.46046  262.98074  238.74797    5.04289  0.6331952  0.41974146   1.7666403  7 MPO166404    54   1    1 days 0.48 M-v 3Eh MPCALB     2803          2009 WJ6           20091120
K09W06K 19.2   0.15 K14C9 167.17782   88.77554  255.15445    6.72150  0.5986796  0.27101238   2.3648847  4 MPO170290    55   1   58 days 0.38 M-v 3Eh MPCADO     2803          2009 WK6           20100114
K09W06L 20.2   0.15 K14C9  45.15546    1.35823   23.87609   13.47063  0.5632226  0.21859273   2.7292641  6 MPO170290    36   1   47 days 0.48 M-v 38h MPCALB     2804          2009 WL6           20100104
K09W06M 23.8   0.15 K14C9 316.49106   65.96246  231.40920   19.70927  0.3438313  0.91091728   1.0539421  8 MPO166404    23   1    5 days 0.36 M-v 3Eh MPCS       2803          2009 WM6           20091123
K09W06N 24.7   0.15 K14C9 203.30612  320.07350   55.32732    0.82239  0.3913185  0.48845635   1.5968062  7 MPO167786    32   1   28 days 0.45 M-v 3Eh MPCALB     2803          2009 WN6           20091216
K09W06O 17.4   0.15 K14C9 317.67072   30.42869   76.23038   28.75943  0.5814579  0.18175069   3.0866354  1 MPO304643    93   2 2009-2014 0.42 M-v 38h MPCW       1804          2009 WO6           20140822
K09W06P 26.8   0.15 K14C9 116.09783  228.02291   54.40906    2.77039  0.7410373  0.82065122   1.1298747  9 MPO166405    18   1    2 days 0.38 M-v 3Eh MPCALB     2803          2009 WP6           20091120
K09W06Q 29.2   0.15 K14C9 186.29150  227.28907   55.66855    5.81612  0.4086454  1.22174118   0.8665958  8 MPO166405    20   1    1 days 0.46 M-v 3Eh MPCK       2802          2009 WQ6           20091119
K09W06X 23.9   0.15 K14C9  78.98391  332.74115   13.46058    1.40000  0.5422261  0.42164097   1.7613305  7 MPO167786    44   1    8 days 0.34 M-v 3Eh MPCALB     2803          2009 WX6           20091127
K09W07D 25.7   0.15 K14C9 133.09383  104.67420  274.39358    1.07348  0.5930777  0.26292717   2.4131208  7 MPO166405    24   1    4 days 0.24 M-v 3Eh MPCALB     2803          2009 WD7           20091123
K09W07G 26.6   0.15 K14C9 273.80006  292.24064   61.59919    3.35056  0.2541223  0.71227714   1.2417573  7 MPO166405    19   1    4 days 0.38 M-v 3Eh MPCADO     2803          2009 WG7           20091123
K09W07V 25.9   0.15 K14C9 294.98546   34.28622   47.76929    3.65110  0.3152733  0.55689005   1.4631530  7 MPO166405    36   1    5 days 0.50 M-v 3Eh MPCADO     2804          2009 WV7           20091124
K09W07W 28.9   0.15 K14C9 213.80672  273.72586   57.16783    2.52408  0.2617219  0.86532281   1.0906463  7 MPO166405    28   1    4 days 0.60 M-v 3Eh MPCADO     2803          2009 WW7           20091123
K09W07X 26.9   0.15 K14C9  26.30113  336.61048   60.18387    2.94097  0.4611325  0.40077251   1.8219541  7 MPO166405    18   1    3 days 1.05 M-v 3Eh MPCALB     2803          2009 WX7           20091121
K09W07Y 24.1   0.15 K14C9  53.05931  172.27508   64.13583    3.98257  0.6064998  1.87904850   0.6503953  9 MPO167786    48   1   17 days 0.41 M-v 3Eh MPCALB     2802          2009 WY7           20091206
K09W07Z 19.8   0.15 K14C9 338.31220  250.35075   76.66772   20.69193  0.6899171  0.36569561   1.9366726  5 MPO170290    49   1   52 days 0.41 M-v 3Eh MPCALB     2803          2009 WZ7           20100110
K09W08M 24.8   0.15 K14C9  26.17802  181.64621  237.17948   14.00447  0.4413799  0.40415697   1.8117684  8 MPO166405    20   1    4 days 0.94 M-v 3Eh MPCALB     2804          2009 WM8           20091121
K09W08N 25.2   0.15 K14C9 273.74782  220.64620   58.69710   12.77214  0.3581958  1.26183735   0.8481392  8 MPO166405    26   1    3 days 0.46 M-v 3Eh MPCADO     2802          2009 WN8           20091122
K09W08O 27.2   0.15 K14C9 213.58517  194.61373  237.59554    8.24456  0.3498035  0.50962215   1.5522816  7 MPO166405    22   1    1 days 0.27 M-v 3Eh MPCALB     2804          2009 WO8           20091121
K09W11B 25.4   0.15 K14C9  95.95942  306.28562   58.46196    3.94600  0.4738524  0.43205971   1.7329001  6 MPO166406    30   1    7 days 0.44 M-v 3Eh MPCALB     2803          2009 WB11          20091127
K09W11C 22.1   0.15 K14C9 131.51014  342.10877   72.99875    2.34408  0.4981822  0.26543174   2.3979170  5 MPO170290    44   1   36 days 0.33 M-v 38h MPCALB     2804          2009 WC11          20091226
K09W11D 22.0   0.15 K14C9 125.22852  127.43239   65.39355   11.64614  0.4081283  0.89493680   1.0664516  7 MPO175319    82   1   27 days 0.42 M-v 3Eh MPCW       2803          2009 WD11          20091217
K09W25N 18.3   0.15 K14C9 309.85700  180.91841  232.09803   71.95252  0.6606069  0.16840282   3.2476544  5 MPO167788   116   1   25 days 0.36 M-v 38h MPCADO     2804          2009 WN25          20091217
K09W25P 19.7   0.15 K14C9  59.99851   28.98446  245.26061   27.54041  0.7726089  0.59639737   1.3978017  6 MPO167788    67   1   27 days 0.36 M-v 3Eh MPCALB     2803          2009 WP25          20091218
K09W25Q 23.9   0.15 K14C9 142.91145  286.95725   44.12039    4.40648  0.7092408  0.26468833   2.4024048  8 MPO166409    29   1    6 days 0.57 M-v 3Eh MPCS       2803          2009 WQ25          20091127
K09W25R 21.6   0.15 K14C9 195.90974   31.33661  238.24519   31.72100  0.4809269  1.21992955   0.8674535  4 MPO277998    75   2 2009-2013 0.43 M-v 3Eh MPCADO     0802          2009 WR25          20131202
K09W25S 25.1   0.15 K14C9 277.26958  218.86783  239.43905   14.79147  0.1526566  0.75243853   1.1971687  7 MPO166409    44   1    1 days 0.37 M-v 3Eh MPCS       2804          2009 WS25          20091122
K09W25T 23.1   0.15 K14C9 173.57602  172.70199  248.23955    5.41374  0.4599311  0.28932584   2.2640077  6 MPO170291    32   1   44 days 0.39 M-v 38h MPCW       2804          2009 WT25          20100104
K09W25U 25.0   0.15 K14C9 130.63460  331.28168   60.73834    5.40410  0.6003725  0.26318533   2.4115425  7 MPO166409    41   1    1 days 0.48 M-v 3Eh MPCS       2803          2009 WU25          20091122
K09W25V 24.0   0.15 K14C9 341.19083  155.02358  341.88098    0.41242  0.4269760  0.59447890   1.4008074  3 MPO170291   192   1    9 days 0.46 M-v 3Eh MPCW       2803          2009 WV25          20091202
K09W25W 20.7   0.15 K14C9 288.66189  156.03782  269.26594    1.48276  0.4531844  0.35456505   1.9769944  4 MPO172382    92   1  137 days 0.41 M-v 3Eh MPCALB     2804          2009 WW25          20100201
K09W51V 27.1   0.15 K14C9 313.56645   95.72151   62.13971    8.44811  0.4326829  0.78222708   1.1665790  6 MPO166414    41   1    1 days 0.36 M-v 3Eh MPCS       2803          2009 WV51          20091124
K09W51Y 21.8   0.15 K14C9  80.98153   87.38960  249.14939   11.80621  0.7115334  0.23101338   2.6305383  7 MPO167791    26   1   27 days 0.49 M-v 3Eh MPCADO     2803          2009 WY51          20091219
K09W51Z 25.4   0.15 K14C9 144.50297  337.55485   57.71440    8.92387  0.5775551  0.27110454   2.3643486  6 MPO166414    25   1    1 days 0.53 M-v 3Eh MPCK       2803          2009 WZ51          20091123
K09W52A 26.3   0.15 K14C9  23.92765  214.18703  253.34366    1.78307  0.4717983  0.41259232   1.7869893  7 MPO167791    43   1    9 days 0.42 M-v 3Eh MPCALB     2803          2009 WA52          20091201
K09W52B 25.7   0.15 K14C9  90.41189   16.12775   57.47150   12.01699  0.3751308  0.44304583   1.7041335  8 MPO166414    23   1    1 days 0.52 M-v 3Eh MPCK       2804          2009 WB52          20091123
K09W52C 18.5   0.15 K14C9 125.32864  148.21226  179.21064    7.04216  0.5560776  0.24582845   2.5237594  2 MPO278254    57   2 2009-2013 0.40 M-v 38h MPCALB     0804          2009 WC52          20131128
K09W52D 24.9   0.15 K14C9 142.92091  327.02219   61.58119   30.25361  0.2267179  0.65292125   1.3159181  6 MPO166414    46   1    3 days 0.52 M-v 3Eh MPCALB     2804          2009 WD52          20091125
K09W52Q 28.1   0.15 K14C9  75.42567   49.30467   61.23972    5.72949  0.6597052  0.24099799   2.5573712  6 MPO166414    21   1    3 days 0.29 M-v 3Eh MPCALB     2803          2009 WQ52          20091125
K09W52R 28.3   0.15 K14C9 359.76570  269.88749   61.02798    4.23452  0.1550118  0.93794745   1.0335950  6 MPO170293    23   1   16 days 0.63 M-v 3Eh MPCALB     2803          2009 WR52          20091209
K09W52S 23.5   0.15 K14C9  59.28374  157.50861  240.00181   27.93577  0.3944417  0.41787152   1.7719068  8 MPO166414    12   1    1 days 0.32 M-v 3Eh MPCADO     2804          2009 WS52          20091124
K09W53Z 24.2   0.15 K14C9 333.51351  111.69028   61.56856   32.62598  0.2415228  0.81399071   1.1360299  8 MPO166415    22   1    3 days 0.40 M-v 3Eh MPCADO     2803          2009 WZ53          20091126
K09W54A 26.8   0.15 K14C9 208.96495  150.58912  244.90403    6.90798  0.3798045  0.49884555   1.5745579  7 MPO166415    18   1    1 days 0.60 M-v 3Eh MPCW       2803          2009 WA54          20091124
K09W54B 26.4   0.15 K14C9  82.44351  300.10381   61.67436   18.93961  0.3569274  0.61560532   1.3685725  7 MPO167791    30   1    1 days 0.55 M-v 3Eh MPCADO     2803          2009 WB54          20091125
K09W54C 23.8   0.15 K14C9 117.73869  347.13488  243.92620   19.42024  0.2311680  1.13109945   0.9122955  9 MPO166415    14   1    0 days 0.29 M-v 3Eh MPCS       2802          2009 WC54          20091124
K09W54D 28.5   0.15 K14C9  59.25128  211.24439   61.10662    3.00328  0.2947679  1.33134897   0.8183544  9 MPO166415    20   1    2 days 0.76 M-v 3Eh MPCK       2802          2009 WD54          20091126
K09W54F 25.8   0.15 K14C9 359.40219  128.25155  240.58543    3.28268  0.3089044  0.57111033   1.4387634  8 MPO166415    19   1    1 days 0.41 M-v 3Eh MPCK       2803          2009 WF54          20091124
K09W54G 21.2   0.15 K14C9 150.37682   85.79738   64.39760   13.02864  0.2878263  0.50413433   1.5635263  1 MPO292150    62   3 2009-2014 0.43 M-v 38h MPCALB     0804          2009 WG54          20140411
K09WA4F 17.2   0.15 K14C9 301.81981   94.03191   81.96479   17.00685  0.6586317  0.18299724   3.0726024  2 E2014-U27    82   3 2009-2014 0.37 M-v 3Eh MPCALB     1804          2009 WF104         20141021
